[{"OBJECT_NAME":"STARLINK-36279","OBJECT_ID":"2025-304B","EPOCH":"2026-03-09T16:21:40.901760","MEAN_MOTION":14.99121687,"ECCENTRICITY":0.00027352,"INCLINATION":70.0026,"RA_OF_ASC_NODE":174.4733,"ARG_OF_PERICENTER":265.5448,"MEAN_ANOMALY":94.5399,"EPHEMERIS_TYPE":0,"CLASSIFICATION_TYPE":"U","NORAD_CAT_ID":67193,"ELEMENT_SET_NO":999,"REV_AT_EPOCH":1388,"BSTAR":-0.00067849106,"MEAN_MOTION_DOT":-8.347e-5,"MEAN_MOTION_DDOT":0},{"OBJECT_NAME":"SPOT 2","OBJECT_ID":"1990-005A","EPOCH":"2026-03-09T21:55:30.289728","MEAN_MOTION":14.73729036,"ECCENTRICITY":0.01297919,"INCLINATION":98.6985,"RA_OF_ASC_NODE":218.7434,"ARG_OF_PERICENTER":40.4901,"MEAN_ANOMALY":320.5875,"EPHEMERIS_TYPE":0,"CLASSIFICATION_TYPE":"U","NORAD_CAT_ID":20436,"ELEMENT_SET_NO":999,"REV_AT_EPOCH":90070,"BSTAR":0.00013767957,"MEAN_MOTION_DOT":9.62e-6,"MEAN_MOTION_DDOT":0}]
